{"fetched_at":"2026-03-30T20:46:33Z","count":15425,"tles":[{"name":"STARLINK-34598","line1":"1 64759U 25147E   26087.56134704  .00021263  00000+0  72771-3 0  9993","line2":"2 64759  53.1586 154.9122 0001178  74.5788 285.5342 15.30211236 41593","category":"Starlink"}]}