{
  "norad_id": 64759,
  "name": "STARLINK-34598",
  "history": [
    {
      "epoch": "2026-03-28T13:28:20.384256Z",
      "apogee_km": 475.9888418756782,
      "perigee_km": 474.37420003214174,
      "latitude_deg": -6.279611391560453e-05,
      "longitude_deg": 126.84719412755157,
      "height_km": 475.8649692444787,
      "semi_major_axis_km": 6853.31852095391,
      "eccentricity": 0.0001178,
      "inclination_deg": 53.1586,
      "raan_deg": 154.9122,
      "arg_perigee_deg": 74.5788,
      "mean_anomaly_deg": 285.5342,
      "mean_motion_rev_day": 15.30211236
    }
  ]
}